[{"OBJECT_NAME":"STARLINK-34701","OBJECT_ID":"2025-158X","EPOCH":"2026-03-09T13:58:41.940768","MEAN_MOTION":15.05648745,"ECCENTRICITY":0.0001818,"INCLINATION":97.602,"RA_OF_ASC_NODE":294.0414,"ARG_OF_PERICENTER":77.0998,"MEAN_ANOMALY":283.0432,"EPHEMERIS_TYPE":0,"CLASSIFICATION_TYPE":"U","NORAD_CAT_ID":64953,"ELEMENT_SET_NO":999,"REV_AT_EPOCH":3534,"BSTAR":0.00015816,"MEAN_MOTION_DOT":2.222e-5,"MEAN_MOTION_DDOT":0},{"OBJECT_NAME":"CZ-2C DEB","OBJECT_ID":"2011-039F","EPOCH":"2026-03-09T17:45:14.166720","MEAN_MOTION":15.09482172,"ECCENTRICITY":0.00342492,"INCLINATION":97.9174,"RA_OF_ASC_NODE":359.6762,"ARG_OF_PERICENTER":347.2377,"MEAN_ANOMALY":72.5812,"EPHEMERIS_TYPE":0,"CLASSIFICATION_TYPE":"U","NORAD_CAT_ID":37770,"ELEMENT_SET_NO":999,"REV_AT_EPOCH":77853,"BSTAR":0.0024394871,"MEAN_MOTION_DOT":0.00039734,"MEAN_MOTION_DDOT":0}]
